{
  "type": "FeatureCollection",
  "features": [
    {
      "type": "Feature",
      "properties": {
        "norad_id": 66537,
        "name": "STARLINK-35582",
        "group": "last-30-days",
        "lat": 20.430107185632416,
        "lon": 127.32803930501426,
        "alt_km": 342.60274962005496,
        "timestamp": "2025-12-04T07:39:34.999649+00:00",
        "meta_object_name": "STARLINK-35582",
        "meta_object_id": "2025-265X",
        "meta_epoch": "2025-12-03T22:00:03.000096",
        "meta_mean_motion": 15.75314122,
        "meta_eccentricity": 0.00016801,
        "meta_inclination": 43.0001,
        "meta_ra_of_asc_node": 106.208,
        "meta_arg_of_pericenter": 283.9953,
        "meta_mean_anomaly": 342.1692,
        "meta_ephemeris_type": 0,
        "meta_classification_type": "U",
        "meta_norad_cat_id": 66537,
        "meta_element_set_no": 999,
        "meta_rev_at_epoch": 357,
        "meta_bstar": -0.0052968896,
        "meta_mean_motion_dot": -0.00754251,
        "meta_mean_motion_ddot": 0,
        "tle_line1": "1 66537U 25265X   25337.91670139 -.00754251  00000+0 -52969-2 0  9991",
        "tle_line2": "2 66537  43.0001 106.2080 0001680 283.9953 342.1692 15.75314122  3571"
      },
      "geometry": {
        "type": "Point",
        "coordinates": [
          127.32803930501426,
          20.430107185632416
        ]
      }
    },
    {
      "type": "Feature",
      "properties": {
        "norad_id": 66538,
        "name": "STARLINK-35577",
        "group": "last-30-days",
        "lat": 21.638801728730247,
        "lon": 128.9577900935509,
        "alt_km": 343.0146044104531,
        "timestamp": "2025-12-04T07:39:34.999658+00:00",
        "meta_object_name": "STARLINK-35577",
        "meta_object_id": "2025-265Y",
        "meta_epoch": "2025-12-03T22:00:03.000096",
        "meta_mean_motion": 15.75248258,
        "meta_eccentricity": 0.00017413,
        "meta_inclination": 43,
        "meta_ra_of_asc_node": 106.2026,
        "meta_arg_of_pericenter": 266.0055,
        "meta_mean_anomaly": 2.1982,
        "meta_ephemeris_type": 0,
        "meta_classification_type": "U",
        "meta_norad_cat_id": 66538,
        "meta_element_set_no": 999,
        "meta_rev_at_epoch": 357,
        "meta_bstar": -0.0052678755,
        "meta_mean_motion_dot": -0.00748477,
        "meta_mean_motion_ddot": 0,
        "tle_line1": "1 66538U 25265Y   25337.91670139 -.00748477  00000+0 -52679-2 0  9993",
        "tle_line2": "2 66538  43.0000 106.2026 0001741 266.0055   2.1982 15.75248258  3575"
      },
      "geometry": {
        "type": "Point",
        "coordinates": [
          128.9577900935509,
          21.638801728730247
        ]
      }
    },
    {
      "type": "Feature",
      "properties": {
        "norad_id": 66539,
        "name": "STARLINK-35697",
        "group": "last-30-days",
        "lat": 22.786765138625587,
        "lon": 130.55195678204515,
        "alt_km": 342.6588776650751,
        "timestamp": "2025-12-04T07:39:34.999666+00:00",
        "meta_object_name": "STARLINK-35697",
        "meta_object_id": "2025-265Z",
        "meta_epoch": "2025-12-03T22:00:03.000096",
        "meta_mean_motion": 15.75308569,
        "meta_eccentricity": 0.00017233,
        "meta_inclination": 43.0001,
        "meta_ra_of_asc_node": 106.1978,
        "meta_arg_of_pericenter": 265.4843,
        "meta_mean_anomaly": 4.4951,
        "meta_ephemeris_type": 0,
        "meta_classification_type": "U",
        "meta_norad_cat_id": 66539,
        "meta_element_set_no": 999,
        "meta_rev_at_epoch": 357,
        "meta_bstar": -0.0051512286,
        "meta_mean_motion_dot": -0.00735028,
        "meta_mean_motion_ddot": 0,
        "tle_line1": "1 66539U 25265Z   25337.91670139 -.00735028  00000+0 -51512-2 0  9997",
        "tle_line2": "2 66539  43.0001 106.1978 0001723 265.4843   4.4951 15.75308569  3573"
      },
      "geometry": {
        "type": "Point",
        "coordinates": [
          130.55195678204515,
          22.786765138625587
        ]
      }
    },
    {
      "type": "Feature",
      "properties": {
        "norad_id": 66540,
        "name": "STARLINK-35818",
        "group": "last-30-days",
        "lat": 23.975355446669145,
        "lon": 132.2570164453516,
        "alt_km": 342.5696626659437,
        "timestamp": "2025-12-04T07:39:34.999675+00:00",
        "meta_object_name": "STARLINK-35818",
        "meta_object_id": "2025-265AA",
        "meta_epoch": "2025-12-03T22:00:03.000096",
        "meta_mean_motion": 15.75405716,
        "meta_eccentricity": 0.00019994,
        "meta_inclination": 42.9998,
        "meta_ra_of_asc_node": 106.1933,
        "meta_arg_of_pericenter": 274.4544,
        "meta_mean_anomaly": 357.455,
        "meta_ephemeris_type": 0,
        "meta_classification_type": "U",
        "meta_norad_cat_id": 66540,
        "meta_element_set_no": 999,
        "meta_rev_at_epoch": 357,
        "meta_bstar": -0.0063532111,
        "meta_mean_motion_dot": -0.00893335,
        "meta_mean_motion_ddot": 0,
        "tle_line1": "1 66540U 25265AA  25337.91670139 -.00893335  00000+0 -63532-2 0  9990",
        "tle_line2": "2 66540  42.9998 106.1933 0001999 274.4544 357.4550 15.75405716  3570"
      },
      "geometry": {
        "type": "Point",
        "coordinates": [
          132.2570164453516,
          23.975355446669145
        ]
      }
    },
    {
      "type": "Feature",
      "properties": {
        "norad_id": 66541,
        "name": "STARLINK-35796",
        "group": "last-30-days",
        "lat": 25.089338766594192,
        "lon": 133.90908919225717,
        "alt_km": 342.39009895980143,
        "timestamp": "2025-12-04T07:39:34.999684+00:00",
        "meta_object_name": "STARLINK-35796",
        "meta_object_id": "2025-265AB",
        "meta_epoch": "2025-12-03T22:00:03.000096",
        "meta_mean_motion": 15.75310596,
        "meta_eccentricity": 0.00019544,
        "meta_inclination": 43,
        "meta_ra_of_asc_node": 106.1884,
        "meta_arg_of_pericenter": 269.336,
        "meta_mean_anomaly": 4.4823,
        "meta_ephemeris_type": 0,
        "meta_classification_type": "U",
        "meta_norad_cat_id": 66541,
        "meta_element_set_no": 999,
        "meta_rev_at_epoch": 357,
        "meta_bstar": -0.0052055207,
        "meta_mean_motion_dot": -0.00742266,
        "meta_mean_motion_ddot": 0,
        "tle_line1": "1 66541U 25265AB  25337.91670139 -.00742266  00000+0 -52055-2 0  9995",
        "tle_line2": "2 66541  43.0000 106.1884 0001954 269.3360   4.4823 15.75310596  3575"
      },
      "geometry": {
        "type": "Point",
        "coordinates": [
          133.90908919225717,
          25.089338766594192
        ]
      }
    },
    {
      "type": "Feature",
      "properties": {
        "norad_id": 66542,
        "name": "STARLINK-35833",
        "group": "last-30-days",
        "lat": 26.226687539370126,
        "lon": 135.65805492840946,
        "alt_km": 342.12383950396725,
        "timestamp": "2025-12-04T07:39:34.999693+00:00",
        "meta_object_name": "STARLINK-35833",
        "meta_object_id": "2025-265AC",
        "meta_epoch": "2025-12-03T22:00:03.000096",
        "meta_mean_motion": 15.75392115,
        "meta_eccentricity": 0.00014412,
        "meta_inclination": 42.9999,
        "meta_ra_of_asc_node": 106.1839,
        "meta_arg_of_pericenter": 272.0195,
        "meta_mean_anomaly": 3.7257,
        "meta_ephemeris_type": 0,
        "meta_classification_type": "U",
        "meta_norad_cat_id": 66542,
        "meta_element_set_no": 999,
        "meta_rev_at_epoch": 357,
        "meta_bstar": -0.0062615573,
        "meta_mean_motion_dot": -0.00881026,
        "meta_mean_motion_ddot": 0,
        "tle_line1": "1 66542U 25265AC  25337.91670139 -.00881026  00000+0 -62616-2 0  9998",
        "tle_line2": "2 66542  42.9999 106.1839 0001441 272.0195   3.7257 15.75392115  3579"
      },
      "geometry": {
        "type": "Point",
        "coordinates": [
          135.65805492840946,
          26.226687539370126
        ]
      }
    },
    {
      "type": "Feature",
      "properties": {
        "norad_id": 66543,
        "name": "STARLINK-35315",
        "group": "last-30-days",
        "lat": 27.332495923260595,
        "lon": 137.4241160632669,
        "alt_km": 342.128377650386,
        "timestamp": "2025-12-04T07:39:34.999704+00:00",
        "meta_object_name": "STARLINK-35315",
        "meta_object_id": "2025-265AD",
        "meta_epoch": "2025-12-03T22:00:03.000096",
        "meta_mean_motion": 15.7539677,
        "meta_eccentricity": 0.00019808,
        "meta_inclination": 43,
        "meta_ra_of_asc_node": 106.1785,
        "meta_arg_of_pericenter": 275.3625,
        "meta_mean_anomaly": 2.3017,
        "meta_ephemeris_type": 0,
        "meta_classification_type": "U",
        "meta_norad_cat_id": 66543,
        "meta_element_set_no": 999,
        "meta_rev_at_epoch": 346,
        "meta_bstar": -0.0062994132,
        "meta_mean_motion_dot": -0.00886185,
        "meta_mean_motion_ddot": 0,
        "tle_line1": "1 66543U 25265AD  25337.91670139 -.00886185  00000+0 -62994-2 0  9999",
        "tle_line2": "2 66543  43.0000 106.1785 0001980 275.3625   2.3017 15.75396770  3465"
      },
      "geometry": {
        "type": "Point",
        "coordinates": [
          137.4241160632669,
          27.332495923260595
        ]
      }
    }
  ]
}